STARLINK-36803
1 67893U 26035Q   26061.16668981 -.00786670  21988-3 -12356-2 0  9995
2 67893  97.2783 352.9024 0001025 111.7265 120.6970 16.03958912  2547
